STARLINK-30327          
1 57707U 23129K   25125.71048834  .00000865  00000+0  79072-4 0  9990
2 57707  43.0039 341.2877 0001415 255.3926 104.6760 15.02536478 94336
STARLINK-30315          
1 57708U 23129L   25125.89963733  .00000239  00000+0  32744-4 0  9994
2 57708  43.0043 352.8369 0001107 264.6326  95.4391 15.02532569 94357
STARLINK-30287          
1 57709U 23129M   25126.03925489  .00000505  00000+0  52456-4 0  9996
2 57709  43.0047 352.1653 0001174 266.8836  93.1872 15.02530231 94370
STARLINK-30335          
1 57710U 23129N   25126.03591337  .00001255  00000+0  10797-3 0  9993
2 57710  43.0043 352.1401 0001342 272.7597  87.3091 15.02545577 94373
STARLINK-30318          
1 57711U 23129P   25126.04590826  .00001076  00000+0  94724-4 0  9991
2 57711  43.0063 352.1978 0001194 261.6428  98.4279 15.02534983 94134
STARLINK-30348          
1 57712U 23129Q   25125.36115065 -.00003442  00000+0 -23976-3 0  9995
2 57712  43.0057 355.6735 0000965 269.8421  90.2311 15.02552877 94279
STARLINK-30349          
1 57713U 23129R   25126.01922812 -.00017754  00000+0 -12977-2 0  9994
2 57713  43.0122 352.0100 0003559 256.1260 103.9187 15.02667801 94077
STARLINK-30341          
1 57714U 23129S   25125.99596700  .00001501  00000+0  12616-3 0  9996
2 57714  43.0054 351.8385 0001280 267.0108  93.0588 15.02531119 94374
STARLINK-30300          
1 57715U 23129T   25125.36448348  .00000459  00000+0  49029-4 0  9992
2 57715  43.0052 355.7010 0001282 278.4923  81.5774 15.02538547 94274
STARLINK-30281          
1 57716U 23129U   25126.00927739  .00001215  00000+0  10495-3 0  9996
2 57716  43.0036 351.9373 0001305 269.0555  91.0138 15.02541361 94076
STARLINK-30325          
1 57717U 23129V   25126.02260566 -.00001087  00000+0 -65409-4 0  9992
2 57717  43.0046 352.0360 0001473 267.1221  92.9452 15.02524645 94379
STARLINK-30338          
1 57718U 23129W   25125.08192616  .00002438  00000+0  19548-3 0  9999
2 57718  43.0052 357.0220 0001220 268.2103  91.8599 15.02530987 94239
STARLINK-30334          
1 57719U 23129X   25125.94945928 -.00003469  00000+0 -24170-3 0  9991
2 57719  43.0042 352.3499 0001614 260.2990  99.7670 15.02561819 94222
STARLINK-30375          
1 57732U 23131A   25126.11490340 -.00001973  00000+0 -13105-3 0  9996
2 57732  43.0049  30.5706 0001346 267.9993  92.0696 15.02532142 93690
