[
  {
    "OBJECT_NAME": "STARLINK-30327",
    "OBJECT_ID": "2023-129K",
    "EPOCH": "2025-05-05T17:03:06.192576",
    "MEAN_MOTION": 15.02536478,
    "ECCENTRICITY": 0.0001415,
    "INCLINATION": 43.0039,
    "RA_OF_ASC_NODE": 341.2877,
    "ARG_OF_PERICENTER": 255.3926,
    "MEAN_ANOMALY": 104.676,
    "EPHEMERIS_TYPE": 0,
    "CLASSIFICATION_TYPE": "U",
    "NORAD_CAT_ID": 57707,
    "ELEMENT_SET_NO": 999,
    "REV_AT_EPOCH": 9433,
    "BSTAR": 7.9072e-05,
    "MEAN_MOTION_DOT": 8.65e-06,
    "MEAN_MOTION_DDOT": 0
  },
  {
    "OBJECT_NAME": "STARLINK-30315",
    "OBJECT_ID": "2023-129L",
    "EPOCH": "2025-05-05T21:35:28.665312",
    "MEAN_MOTION": 15.02532569,
    "ECCENTRICITY": 0.0001107,
    "INCLINATION": 43.0043,
    "RA_OF_ASC_NODE": 352.8369,
    "ARG_OF_PERICENTER": 264.6326,
    "MEAN_ANOMALY": 95.4391,
    "EPHEMERIS_TYPE": 0,
    "CLASSIFICATION_TYPE": "U",
    "NORAD_CAT_ID": 57708,
    "ELEMENT_SET_NO": 999,
    "REV_AT_EPOCH": 9435,
    "BSTAR": 3.2744e-05,
    "MEAN_MOTION_DOT": 2.39e-06,
    "MEAN_MOTION_DDOT": 0
  },
  {
    "OBJECT_NAME": "STARLINK-30287",
    "OBJECT_ID": "2023-129M",
    "EPOCH": "2025-05-06T00:56:31.622496",
    "MEAN_MOTION": 15.02530231,
    "ECCENTRICITY": 0.0001174,
    "INCLINATION": 43.0047,
    "RA_OF_ASC_NODE": 352.1653,
    "ARG_OF_PERICENTER": 266.8836,
    "MEAN_ANOMALY": 93.1872,
    "EPHEMERIS_TYPE": 0,
    "CLASSIFICATION_TYPE": "U",
    "NORAD_CAT_ID": 57709,
    "ELEMENT_SET_NO": 999,
    "REV_AT_EPOCH": 9437,
    "BSTAR": 5.2456e-05,
    "MEAN_MOTION_DOT": 5.05e-06,
    "MEAN_MOTION_DDOT": 0
  },
  {
    "OBJECT_NAME": "STARLINK-30335",
    "OBJECT_ID": "2023-129N",
    "EPOCH": "2025-05-06T00:51:42.915168",
    "MEAN_MOTION": 15.02545577,
    "ECCENTRICITY": 0.0001342,
    "INCLINATION": 43.0043,
    "RA_OF_ASC_NODE": 352.1401,
    "ARG_OF_PERICENTER": 272.7597,
    "MEAN_ANOMALY": 87.3091,
    "EPHEMERIS_TYPE": 0,
    "CLASSIFICATION_TYPE": "U",
    "NORAD_CAT_ID": 57710,
    "ELEMENT_SET_NO": 999,
    "REV_AT_EPOCH": 9437,
    "BSTAR": 0.00010797,
    "MEAN_MOTION_DOT": 1.255e-05,
    "MEAN_MOTION_DDOT": 0
  },
  {
    "OBJECT_NAME": "STARLINK-30318",
    "OBJECT_ID": "2023-129P",
    "EPOCH": "2025-05-06T01:06:06.473664",
    "MEAN_MOTION": 15.02534983,
    "ECCENTRICITY": 0.0001194,
    "INCLINATION": 43.0063,
    "RA_OF_ASC_NODE": 352.1978,
    "ARG_OF_PERICENTER": 261.6428,
    "MEAN_ANOMALY": 98.4279,
    "EPHEMERIS_TYPE": 0,
    "CLASSIFICATION_TYPE": "U",
    "NORAD_CAT_ID": 57711,
    "ELEMENT_SET_NO": 999,
    "REV_AT_EPOCH": 9413,
    "BSTAR": 9.4724e-05,
    "MEAN_MOTION_DOT": 1.076e-05,
    "MEAN_MOTION_DDOT": 0
  },
  {
    "OBJECT_NAME": "STARLINK-30348",
    "OBJECT_ID": "2023-129Q",
    "EPOCH": "2025-05-05T08:40:03.416160",
    "MEAN_MOTION": 15.02552877,
    "ECCENTRICITY": 9.65e-05,
    "INCLINATION": 43.0057,
    "RA_OF_ASC_NODE": 355.6735,
    "ARG_OF_PERICENTER": 269.8421,
    "MEAN_ANOMALY": 90.2311,
    "EPHEMERIS_TYPE": 0,
    "CLASSIFICATION_TYPE": "U",
    "NORAD_CAT_ID": 57712,
    "ELEMENT_SET_NO": 999,
    "REV_AT_EPOCH": 9427,
    "BSTAR": -0.00023976,
    "MEAN_MOTION_DOT": -3.442e-05,
    "MEAN_MOTION_DDOT": 0
  },
  {
    "OBJECT_NAME": "STARLINK-30349",
    "OBJECT_ID": "2023-129R",
    "EPOCH": "2025-05-06T00:27:41.309568",
    "MEAN_MOTION": 15.02667801,
    "ECCENTRICITY": 0.0003559,
    "INCLINATION": 43.0122,
    "RA_OF_ASC_NODE": 352.01,
    "ARG_OF_PERICENTER": 256.126,
    "MEAN_ANOMALY": 103.9187,
    "EPHEMERIS_TYPE": 0,
    "CLASSIFICATION_TYPE": "U",
    "NORAD_CAT_ID": 57713,
    "ELEMENT_SET_NO": 999,
    "REV_AT_EPOCH": 9407,
    "BSTAR": -0.0012977,
    "MEAN_MOTION_DOT": -0.00017754,
    "MEAN_MOTION_DDOT": 0
  },
  {
    "OBJECT_NAME": "STARLINK-30341",
    "OBJECT_ID": "2023-129S",
    "EPOCH": "2025-05-05T23:54:11.548800",
    "MEAN_MOTION": 15.02531119,
    "ECCENTRICITY": 0.000128,
    "INCLINATION": 43.0054,
    "RA_OF_ASC_NODE": 351.8385,
    "ARG_OF_PERICENTER": 267.0108,
    "MEAN_ANOMALY": 93.0588,
    "EPHEMERIS_TYPE": 0,
    "CLASSIFICATION_TYPE": "U",
    "NORAD_CAT_ID": 57714,
    "ELEMENT_SET_NO": 999,
    "REV_AT_EPOCH": 9437,
    "BSTAR": 0.00012616,
    "MEAN_MOTION_DOT": 1.501e-05,
    "MEAN_MOTION_DDOT": 0
  },
  {
    "OBJECT_NAME": "STARLINK-30300",
    "OBJECT_ID": "2023-129T",
    "EPOCH": "2025-05-05T08:44:51.372672",
    "MEAN_MOTION": 15.02538547,
    "ECCENTRICITY": 0.0001282,
    "INCLINATION": 43.0052,
    "RA_OF_ASC_NODE": 355.701,
    "ARG_OF_PERICENTER": 278.4923,
    "MEAN_ANOMALY": 81.5774,
    "EPHEMERIS_TYPE": 0,
    "CLASSIFICATION_TYPE": "U",
    "NORAD_CAT_ID": 57715,
    "ELEMENT_SET_NO": 999,
    "REV_AT_EPOCH": 9427,
    "BSTAR": 4.9029e-05,
    "MEAN_MOTION_DOT": 4.59e-06,
    "MEAN_MOTION_DDOT": 0
  },
  {
    "OBJECT_NAME": "STARLINK-30281",
    "OBJECT_ID": "2023-129U",
    "EPOCH": "2025-05-06T00:13:21.566496",
    "MEAN_MOTION": 15.02541361,
    "ECCENTRICITY": 0.0001305,
    "INCLINATION": 43.0036,
    "RA_OF_ASC_NODE": 351.9373,
    "ARG_OF_PERICENTER": 269.0555,
    "MEAN_ANOMALY": 91.0138,
    "EPHEMERIS_TYPE": 0,
    "CLASSIFICATION_TYPE": "U",
    "NORAD_CAT_ID": 57716,
    "ELEMENT_SET_NO": 999,
    "REV_AT_EPOCH": 9407,
    "BSTAR": 0.00010495,
    "MEAN_MOTION_DOT": 1.215e-05,
    "MEAN_MOTION_DDOT": 0
  },
  {
    "OBJECT_NAME": "STARLINK-30325",
    "OBJECT_ID": "2023-129V",
    "EPOCH": "2025-05-06T00:32:33.129024",
    "MEAN_MOTION": 15.02524645,
    "ECCENTRICITY": 0.0001473,
    "INCLINATION": 43.0046,
    "RA_OF_ASC_NODE": 352.036,
    "ARG_OF_PERICENTER": 267.1221,
    "MEAN_ANOMALY": 92.9452,
    "EPHEMERIS_TYPE": 0,
    "CLASSIFICATION_TYPE": "U",
    "NORAD_CAT_ID": 57717,
    "ELEMENT_SET_NO": 999,
    "REV_AT_EPOCH": 9437,
    "BSTAR": -6.5409e-05,
    "MEAN_MOTION_DOT": -1.087e-05,
    "MEAN_MOTION_DDOT": 0
  },
  {
    "OBJECT_NAME": "STARLINK-30338",
    "OBJECT_ID": "2023-129W",
    "EPOCH": "2025-05-05T01:57:58.420224",
    "MEAN_MOTION": 15.02530987,
    "ECCENTRICITY": 0.000122,
    "INCLINATION": 43.0052,
    "RA_OF_ASC_NODE": 357.022,
    "ARG_OF_PERICENTER": 268.2103,
    "MEAN_ANOMALY": 91.8599,
    "EPHEMERIS_TYPE": 0,
    "CLASSIFICATION_TYPE": "U",
    "NORAD_CAT_ID": 57718,
    "ELEMENT_SET_NO": 999,
    "REV_AT_EPOCH": 9423,
    "BSTAR": 0.00019548,
    "MEAN_MOTION_DOT": 2.438e-05,
    "MEAN_MOTION_DDOT": 0
  },
  {
    "OBJECT_NAME": "STARLINK-30334",
    "OBJECT_ID": "2023-129X",
    "EPOCH": "2025-05-05T22:47:13.281792",
    "MEAN_MOTION": 15.02561819,
    "ECCENTRICITY": 0.0001614,
    "INCLINATION": 43.0042,
    "RA_OF_ASC_NODE": 352.3499,
    "ARG_OF_PERICENTER": 260.299,
    "MEAN_ANOMALY": 99.767,
    "EPHEMERIS_TYPE": 0,
    "CLASSIFICATION_TYPE": "U",
    "NORAD_CAT_ID": 57719,
    "ELEMENT_SET_NO": 999,
    "REV_AT_EPOCH": 9422,
    "BSTAR": -0.0002417,
    "MEAN_MOTION_DOT": -3.469e-05,
    "MEAN_MOTION_DDOT": 0
  },
  {
    "OBJECT_NAME": "STARLINK-30375",
    "OBJECT_ID": "2023-131A",
    "EPOCH": "2025-05-06T02:45:27.653760",
    "MEAN_MOTION": 15.02532142,
    "ECCENTRICITY": 0.0001346,
    "INCLINATION": 43.0049,
    "RA_OF_ASC_NODE": 30.5706,
    "ARG_OF_PERICENTER": 267.9993,
    "MEAN_ANOMALY": 92.0696,
    "EPHEMERIS_TYPE": 0,
    "CLASSIFICATION_TYPE": "U",
    "NORAD_CAT_ID": 57732,
    "ELEMENT_SET_NO": 999,
    "REV_AT_EPOCH": 9369,
    "BSTAR": -0.00013105,
    "MEAN_MOTION_DOT": -1.973e-05,
    "MEAN_MOTION_DDOT": 0
  }
]